[{"placename":"Oakland Zoo","venue":"Oakland Zoo","image":"elephant","noun":"animal","hexcolor":"#FFE7E7","city":"Oakland","state":"California","year":"2013","photo-url":"","rowNumber":1},{"placename":"Winchester Mystery House","venue":"Winchester Mystery House","image":"mansion","noun":"place","hexcolor":"#F7CE86","city":"San Jose","state":"California","year":"2012","photo-url":"","rowNumber":2},{"placename":"Winchester Mystery House","venue":"Winchester Mystery House","image":"Sarah Winchester","noun":"person","hexcolor":"#F78585","city":"San Jose","state":"California","year":"2012","photo-url":"","rowNumber":3},{"placename":"Amerian Museum of Natural History","venue":"Amerian Museum of Natural History","image":"mammoth","noun":"animal","hexcolor":"#FFE7E7","city":"Washington DC","state":"Washington DC","year":"2011","photo-url":"","rowNumber":4},{"placename":"Six Flags Over Georgia","venue":"Six Flags Over Georgia","image":"Viper","noun":"animal, ride","hexcolor":"#F7CE86","city":"Atlanta","state":"Georgia","year":"2000","photo-url":"","rowNumber":5},{"placename":"World Trade Center","venue":"","image":"skyline","noun":"place","hexcolor":"#F7CE86","city":"New York City","state":"New York","year":"2008","photo-url":"","rowNumber":6},{"placename":"The St. Pete Pier","venue":"The St. Pete Pier","image":"pier building","noun":"place","hexcolor":"#F7CE86","city":"St. Petersburg","state":"Florida","year":"1998","photo-url":"","rowNumber":7},{"placename":"Miss Katie's Restaurant","venue":"","image":"logo","noun":"graphic","hexcolor":"#F78585","city":"Stone Mountain","state":"Georgia","year":"1993","photo-url":"","rowNumber":8},{"placename":"Rhode Island","venue":"","image":"ship","noun":"thing","hexcolor":"#FFE7E7","city":"Providence","state":"Rhode Island","year":"2008","photo-url":"","rowNumber":9},{"placename":"River Street, Savannah","venue":"","image":"skyline","noun":"place","hexcolor":"#F78585","city":"Savannah ","state":"Georgia","year":"2004","photo-url":"","rowNumber":10},{"placename":"Natchez New Orleans","venue":"","image":"ship","noun":"thing","hexcolor":"#FFE7E7","city":"New Orleans","state":"Lousianna","year":"2007","photo-url":"","rowNumber":11},{"placename":"Margarittaville","venue":"","image":"drink","noun":"thing","hexcolor":"#FFE7E7","city":"New Orleans","state":"Lousianna","year":"2007","photo-url":"","rowNumber":12},{"placename":"Woodman's","venue":"Woodman's","image":"clam","noun":"animal","hexcolor":"#F78585","city":"Essex","state":"Massachusetts","year":"2008","photo-url":"","rowNumber":13},{"placename":"Summit Pikes Peak","venue":"Summit Pikes Peak","image":"logo","noun":"graphic","hexcolor":"#F78585","city":"Pikes Peak","state":"Colorado","year":"2002","photo-url":"","rowNumber":14},{"placename":"Polar Caves Park","venue":"Polar Caves Park","image":"polar bear","noun":"animal","hexcolor":"#F78585","city":"Rumney","state":"New Hampshire","year":"2010","photo-url":"","rowNumber":15},{"placename":"Rainforest Cafe","venue":"OpryMills","image":"butterfly","noun":"animal","hexcolor":"#F7CE86","city":"Nashville","state":"Tennessee","year":"1999","photo-url":"","rowNumber":16},{"placename":"National Museum of American History","venue":"National Museum of American History","image":"house","noun":"place","hexcolor":"#F78585","city":"Washington DC","state":"Washington DC","year":"2011","photo-url":"","rowNumber":17},{"placename":"Boston Celtics","venue":"TD Garden","image":"mascot","noun":"person","hexcolor":"#FFE7E7","city":"Boston","state":"Massachusetts","year":"2010","photo-url":"","rowNumber":18},{"placename":"Cafe du Monde","venue":"Cafe Du Monde","image":"coffee and bengiet","noun":"food","hexcolor":"#FFE7E7","city":"New Orleans","state":"Lousianna","year":"2012","photo-url":"","rowNumber":19},{"placename":"Six Flags Over Georgia","venue":"Six Flags Over Georgia","image":"Wylie Cyotte","noun":"animal","hexcolor":"#FFE7E7","city":"Atlanta","state":"Georgia","year":"2003","photo-url":"","rowNumber":20},{"placename":"Mardis Gras","venue":"","image":"masks","noun":"thing","hexcolor":"#FFE7E7","city":"New Orleans","state":"Lousianna","year":"2004","photo-url":"","rowNumber":21},{"placename":"Buzz Lightyear","venue":"Six Flags Over Georgia","image":"Buzz Lightyear","noun":"person","hexcolor":"#F78585","city":"Walt Disney World","state":"Florida","year":"2001","photo-url":"","rowNumber":22},{"placename":"Independence Hall","venue":"Independence Hall","image":"Indepence Hall","noun":"place","hexcolor":"#FFE7E7","city":"Philadelphia","state":"Pennsylvania","year":"2008","photo-url":"","rowNumber":23},{"placename":"Golden Gate Bridge","venue":"","image":"Golden Gate Bridge","noun":"thing","hexcolor":"#FFE7E7","city":"San Francisco","state":"California","year":"2011","photo-url":"","rowNumber":24},{"placename":"Pirates of the Caribean","venue":"Magic Kingdom, Walt Disney World","image":"Goofey","noun":"person","hexcolor":"#FFE7E7","city":"Walt Disney World","state":"Florida","year":"2001","photo-url":"","rowNumber":25},{"placename":"Boston Skyline","venue":"TD Garden","image":"skyline","noun":"place","hexcolor":"#FFE7E7","city":"Boston","state":"Massachusetts","year":"2009","photo-url":"","rowNumber":26},{"placename":"Johnny Bravo","venue":"Six Flags Over Georgia","image":"Johnny Bravo","noun":"person","hexcolor":"#FFE7E7","city":"Atlanta","state":"Georgia","year":"2003","photo-url":"","rowNumber":27},{"placename":"Busch Gardens","venue":"Busch Gardens","image":"clydesdale","noun":"animal","hexcolor":"#F78585","city":"Tampa","state":"Florida","year":"2002","photo-url":"","rowNumber":28},{"placename":"California Academy of Sciences","venue":"California Academy of Sciences","image":"aligator","noun":"animal","hexcolor":"#FFE7E7","city":"San francisco","state":"California","year":"2012","photo-url":"","rowNumber":29},{"placename":"Santa Monica Pier","venue":"Pacific Park","image":"rollercoaster","noun":"thing","hexcolor":"#F78585","city":"Santa Monica","state":"California","year":"2013","photo-url":"","rowNumber":30},{"placename":"Monterey Aquarium","venue":"Monterey Aquarium","image":"animal","noun":"animal","hexcolor":"#FFE7E7","city":"Monterey","state":"California","year":"2013","photo-url":"","rowNumber":31},{"placename":"Hearst Castle","venue":"Hearst Castle","image":"architecture","noun":"architecture","hexcolor":"#F78585","city":"San Simeon","state":"California","year":"2013","photo-url":"","rowNumber":32}]